[Satellite]
VERSION=1.1
NAME=CZ-6A DEB
NICKNAME=CZ-6A DEB
TLE1=1 54278U 22151V   22342.46475999  .00003906  00000+0  20162-2 0  9993
TLE2=2 54278  98.6139 345.7153 0146215 284.7999  73.7013 14.10265121  3185
STATUS=0
